NUSHSAT1                
1 63211U 25052B   26068.64700493  .00023034  00000+0  74857-3 0  9997
2 63211  97.4095 325.7239 0005501  84.7512 275.4357 15.31903202 54882
STARLINK-35034          
1 65431U 25192AD  26068.76762357  .00020444  00000+0  70067-3 0  9999
2 65431  53.1602 232.1633 0001095  72.1645 287.9475 15.30190544 29395
